SL-16 R/B               
1 25400U 98043G   26004.39135499  .00000118  00000+0  68163-4 0  9997
2 25400  98.8155 317.3398 0009470 195.2923 164.7971 14.26032069429827
SL-16 R/B               
1 25407U 98045B   26004.29687508 -.00000109  00000+0 -31078-4 0  9995
2 25407  71.0127 316.9891 0005508 138.3297 221.8247 14.16181673417989
ISS (ZARYA)             
1 25544U 98067A   26004.43593593  .00010614  00000+0  19982-3 0  9996
2 25544  51.6325  30.0969 0007574 339.4846  20.5837 15.49088307546376
CZ-4B R/B               
1 25732U 99025C   26004.54971172  .00000135  00000+0  86139-4 0  9991
2 25732  98.6736  50.3159 0037348 167.9622 319.9668 14.18250177379075
OKEAN-O                 
1 25860U 99039A   26004.16529242  .00001292  00000+0  17686-3 0  9998
2 25860  97.9569  64.6699 0001371 113.2463 246.8893 14.80208339424840
SL-16 R/B               
1 25861U 99039B   26004.13888209  .00001100  00000+0  14653-3 0  9996
2 25861  98.0092  63.2881 0016095 105.7065 254.5925 14.81626314427309
DELTA 2 R/B             
1 25876U 99041E   26004.23014788  .00002444  00000+0  43111-3 0  9992
2 25876  51.7589 198.6620 0504103 158.0598 204.2773 14.11488824353924
HELIOS 1B               
1 25977U 99064A   26004.27348076  .00003267  00000+0  36768-3 0  9997
2 25977  98.1753 264.6082 0000429  54.3418 305.7836 14.87396443675686
TERRA                   
1 25994U 99068A   26004.48308225  .00000806  00000+0  17363-3 0  9991
2 25994  97.9715  60.3292 0003013  48.1931  64.9431 14.60933020385702
SL-16 R/B               
1 26070U 00006B   26004.08359018  .00000194  00000+0  12304-3 0  9993
2 26070  71.0017 233.6784 0018884 278.6504  81.2480 14.15815081339414
TITAN 4B R/B            
1 26474U 00047B   26004.48000781  .00004463  00000+0  28559-3 0  9992
2 26474  67.9877 220.9818 0037408 116.7629 243.7355 15.08976015383222
ENVISAT                 
1 27386U 02009A   25365.95019499  .00000264  00000+0  99422-4 0  9995
2 27386  98.3626 316.2065 0001107  88.1807 295.1197 14.39007536249430
